*******************************************************************************
Ephemeris / WWW_USER Sun Apr 28 18:32:12 2019 Pasadena, USA      / Horizons    
*******************************************************************************
Target body name: Mars (499)                      {source: mar097}
Center body name: Earth (399)                     {source: mar097}
Center-site name: GEOCENTRIC
*******************************************************************************
Start time      : A.D. 2010-Jan-01 00:00:00.0000 UT      
Stop  time      : A.D. 2030-Jan-01 00:00:00.0000 UT      
Step-size       : 2880 minutes
*******************************************************************************
Target pole/equ : IAU_MARS                        {West-longitude positive}
Target radii    : 3396.2 x 3396.2 x 3376.2 km     {Equator, meridian, pole}    
Center geodetic : 0.00000000,0.00000000,0.0000000 {E-lon(deg),Lat(deg),Alt(km)}
Center cylindric: 0.00000000,0.00000000,0.0000000 {E-lon(deg),Dxy(km),Dz(km)}
Center pole/equ : High-precision EOP model        {East-longitude positive}
Center radii    : 6378.1 x 6378.1 x 6356.8 km     {Equator, meridian, pole}    
Target primary  : Sun
Vis. interferer : MOON (R_eq= 1737.400) km        {source: mar097}
Rel. light bend : Sun, EARTH                      {source: mar097}
Rel. lght bnd GM: 1.3271E+11, 3.9860E+05 km^3/s^2                              
Atmos refraction: YES (Earth refraction model)
RA format       : DEG
Time format     : CAL 
EOP file        : eop.190426.p190718                                           
EOP coverage    : DATA-BASED 1962-JAN-20 TO 2019-APR-26. PREDICTS-> 2019-JUL-17
Units conversion: 1 au= 149597870.700 km, c= 299792.458 km/s, 1 day= 86400.0 s 
Table cut-offs 1: Elevation (-90.0deg=NO ),Airmass (>38.000=NO), Daylight (NO )
Table cut-offs 2: Solar elongation (  0.0,180.0=NO ),Local Hour Angle( 0.0=NO )
Table cut-offs 3: RA/DEC angular rate (     0.0=NO )                           
******************************************************************************************************
 Date__(UT)__HR:MN      APmag  S-brt               r        rdot            delta      deldot    S-T-O
******************************************************************************************************
$$SOE
 2012-Jun-07 00:00       0.59   4.60  1.606492394081  -1.7380508 1.23522773813858  13.5863566  39.1710
 2012-Jun-09 00:00       0.62   4.60  1.604471242585  -1.7615754 1.25089082912453  13.5315233  39.2425
 2012-Jun-11 00:00       0.65   4.60  1.602423158373  -1.7846835 1.26648812536379  13.4722961  39.2993
 2012-Jun-13 00:00       0.67   4.59  1.600348627704  -1.8073662 1.28201412292237  13.4079873  39.3417
 2012-Jun-15 00:00       0.69   4.59  1.598248147201  -1.8296143 1.29746270146636  13.3382047  39.3704
 2012-Jun-17 00:00       0.72   4.59  1.596122223925  -1.8514188 1.31282740308156  13.2627362  39.3858
 2012-Jun-19 00:00       0.74   4.59  1.593971375428  -1.8727706 1.32810158763957  13.1814739  39.3884
 2012-Jun-21 00:00       0.76   4.58  1.591796129802  -1.8936606 1.34327855741056  13.0944368  39.3789
 2012-Jun-23 00:00       0.78   4.58  1.589597025750  -1.9140796 1.35835175068213  13.0018579  39.3576
 2012-Jun-25 00:00       0.80   4.58  1.587374612638  -1.9340182 1.37331504166821  12.9042712  39.3252
 2012-Jun-27 00:00       0.82   4.57  1.585129450561  -1.9534673 1.38816312426553  12.8025682  39.2822
 2012-Jun-29 00:00       0.84   4.57  1.582862110382  -1.9724174 1.40289193838383  12.6980110  39.2292
 2012-Jul-01 00:00       0.86   4.57  1.580573160495  -1.9908593 1.41749913514297  12.5921122  39.1667
 2012-Jul-03 00:00       0.88   4.56  1.578263219985  -2.0087832 1.43198381253603  12.4862011  39.0952
 2012-Jul-05 00:00       0.89   4.56  1.575932879172  -2.0261800 1.44634643780438  12.3807903  39.0150
 2012-Jul-07 00:00       0.91   4.55  1.573582752522  -2.0430400 1.46058739202669  12.2754025  38.9265
 2012-Jul-09 00:00       0.93   4.55  1.571213465486  -2.0593537 1.47470616492421  12.1690880  38.8300
 2012-Jul-11 00:00       0.94   4.55  1.568825654539  -2.0751115 1.48870117248741  12.0610028  38.7257
 2012-Jul-13 00:00       0.96   4.54  1.566419967199  -2.0903040 1.50257001896357  11.9505831  38.6137
 2012-Jul-15 00:00       0.97   4.54  1.563997062052  -2.1049215 1.51630977899298  11.8374534  38.4944
 2012-Jul-17 00:00       0.98   4.53  1.561557608781  -2.1189543 1.52991714625284  11.7213190  38.3679
 2012-Jul-19 00:00       1.00   4.53  1.559102288167  -2.1323929 1.54338851436901  11.6019660  38.2346
 2012-Jul-21 00:00       1.01   4.52  1.556631792097  -2.1452277 1.55672013059674  11.4793823  38.0946
 2012-Jul-23 00:00       1.02   4.52  1.554146823562  -2.1574490 1.56990842708622  11.3539252  37.9483
 2012-Jul-25 00:00       1.04   4.51  1.551648096666  -2.1690471 1.58295051022439  11.2264070  37.7959
 2012-Jul-27 00:00       1.05   4.51  1.549136336602  -2.1800127 1.59584466206460  11.0980260  37.6379
 2012-Jul-29 00:00       1.06   4.50  1.546612279628  -2.1903361 1.60859067256269  10.9701454  37.4744
 2012-Jul-31 00:00       1.07   4.50  1.544076673052  -2.2000076 1.62118983035926  10.8439237  37.3059
 2012-Aug-02 00:00       1.08   4.49  1.541530275182  -2.2090179 1.63364442956578  10.7198799  37.1324
 2012-Aug-04 00:00       1.09   4.49  1.538973855273  -2.2173576 1.64595688598066  10.5977167  36.9543
 2012-Aug-06 00:00       1.10   4.48  1.536408193458  -2.2250172 1.65812892692924  10.4766197  36.7715
 2012-Aug-08 00:00       1.11   4.48  1.533834080696  -2.2319872 1.67016127614751  10.3557332  36.5842
 2012-Aug-10 00:00       1.12   4.47  1.531252318689  -2.2382585 1.68205377752876  10.2344034  36.3924
 2012-Aug-12 00:00       1.12   4.46  1.528663719787  -2.2438221 1.69380563209014  10.1121536  36.1964
 2012-Aug-14 00:00       1.13   4.46  1.526069106903  -2.2486686 1.70541553817276   9.9885740  35.9960
 2012-Aug-16 00:00       1.14   4.45  1.523469313389  -2.2527890 1.71688173240308   9.8632800  35.7916
 2012-Aug-18 00:00       1.15   4.45  1.520865182907  -2.2561747 1.72820207013007   9.7360299  35.5831
 2012-Aug-20 00:00       1.15   4.44  1.518257569264  -2.2588168 1.73937433053975   9.6069794  35.3707
 2012-Aug-22 00:00       1.16   4.44  1.515647336251  -2.2607068 1.75039680648400   9.4768743  35.1548
 2012-Aug-24 00:00       1.17   4.43  1.513035357463  -2.2618363 1.76126895926202   9.3469459  34.9353
 2012-Aug-26 00:00       1.17   4.42  1.510422516079  -2.2621971 1.77199177993385   9.2185399  34.7126
 2012-Aug-28 00:00       1.18   4.42  1.507809704673  -2.2617812 1.78256768322802   9.0927172  34.4869
 2012-Aug-30 00:00       1.18   4.41  1.505197825010  -2.2605806 1.79300000498805   8.9699800  34.2583
 2012-Sep-01 00:00       1.19   4.41  1.502587787850  -2.2585877 1.80329228807001   8.8501913  34.0268
 2012-Sep-03 00:00       1.19   4.40  1.499980512729  -2.2557951 1.81344761770498   8.7327422  33.7926
 2012-Sep-05 00:00       1.20   4.39  1.497376927741  -2.2521953 1.82346825597804   8.6168698  33.5557
 2012-Sep-07 00:00       1.20   4.39  1.494777969312  -2.2477813 1.83335561894990   8.5018967  33.3160
 2012-Sep-09 00:00       1.21   4.38  1.492184581912  -2.2425461 1.84311042194859   8.3872807  33.0737
 2012-Sep-11 00:00       1.21   4.37  1.489597717772  -2.2364834 1.85273279602605   8.2725353  32.8287
 2012-Sep-13 00:00       1.21   4.37  1.487018336560  -2.2295867 1.86222230208122   8.1571549  32.5811
 2012-Sep-15 00:00       1.22   4.36  1.484447405055  -2.2218500 1.87157792680463   8.0406806  32.3309
 2012-Sep-17 00:00       1.22   4.36  1.481885896783  -2.2132677 1.88079828572545   7.9229941  32.0783
 2012-Sep-19 00:00       1.22   4.35  1.479334791636  -2.2038344 1.88988223806784   7.8046781  31.8233
 2012-Sep-21 00:00       1.22   4.34  1.476795075505  -2.1935451 1.89882974169560   7.6869996  31.5662
 2012-Sep-23 00:00       1.23   4.34  1.474267739865  -2.1823951 1.90764237419810   7.5713889  31.3070
 2012-Sep-25 00:00       1.23   4.33  1.471753781339  -2.1703802 1.91632318490768   7.4588999  31.0459
 2012-Sep-27 00:00       1.23   4.32  1.469254201248  -2.1574966 1.92487611347589   7.3500147  30.7830
 2012-Sep-29 00:00       1.23   4.32  1.466770005149  -2.1437408 1.93330534437908   7.2446939  30.5184
 2012-Oct-01 00:00       1.23   4.31  1.464302202346  -2.1291097 1.94161478079329   7.1425176  30.2521
 2012-Oct-03 00:00       1.23   4.30  1.461851805373  -2.1136008 1.94980770892109   7.0428697  29.9842
 2012-Oct-05 00:00       1.24   4.30  1.459419829484  -2.0972120 1.95788667637560   6.9451112  29.7145
 2012-Oct-07 00:00       1.24   4.29  1.457007292115  -2.0799414 1.96585352639383   6.8486660  29.4432
 2012-Oct-09 00:00       1.24   4.28  1.454615212320  -2.0617882 1.97370946503476   6.7529955  29.1701
 2012-Oct-11 00:00       1.24   4.28  1.452244610194  -2.0427516 1.98145506000640   6.6575214  28.8954
 2012-Oct-13 00:00       1.24   4.27  1.449896506276  -2.0228314 1.98909017732961   6.5616220  28.6190
 2012-Oct-15 00:00       1.24   4.26  1.447571920949  -2.0020281 1.99661404096392   6.4648748  28.3410
 2012-Oct-17 00:00       1.24   4.26  1.445271873791  -1.9803426 2.00402573572819   6.3675442  28.0614
 2012-Oct-19 00:00       1.24   4.25  1.442997382941  -1.9577766 2.01132519285583   6.2708077  27.7804
 2012-Oct-21 00:00       1.24   4.24  1.440749464439  -1.9343319 2.01851400222057   6.1762197  27.4981
 2012-Oct-23 00:00       1.24   4.24  1.438529131539  -1.9100115 2.02559537725772   6.0849405  27.2146
 2012-Oct-25 00:00       1.24   4.23  1.436337393999  -1.8848188 2.03257349262237   5.9974792  26.9301
 2012-Oct-27 00:00       1.24   4.23  1.434175257359  -1.8587575 2.03945280429297   5.9138510  26.6445
 2012-Oct-29 00:00       1.24   4.22  1.432043722218  -1.8318324 2.04623759703120   5.8337699  26.3578
 2012-Oct-31 00:00       1.24   4.21  1.429943783482  -1.8040486 2.05293171174175   5.7567695  26.0702
